[{"OBJECT_NAME":"STARLINK-5408","OBJECT_ID":"2022-175BE","EPOCH":"2026-03-09T07:09:38.209824","MEAN_MOTION":15.08837616,"ECCENTRICITY":0.000175,"INCLINATION":53.219,"RA_OF_ASC_NODE":25.6449,"ARG_OF_PERICENTER":85.9227,"MEAN_ANOMALY":274.1965,"EPHEMERIS_TYPE":0,"CLASSIFICATION_TYPE":"U","NORAD_CAT_ID":54810,"ELEMENT_SET_NO":999,"REV_AT_EPOCH":18014,"BSTAR":6.452647e-6,"MEAN_MOTION_DOT":-1.85e-6,"MEAN_MOTION_DDOT":0},{"OBJECT_NAME":"DANDE","OBJECT_ID":"2013-055C","EPOCH":"2026-03-09T22:31:17.292576","MEAN_MOTION":14.76534852,"ECCENTRICITY":0.04736914,"INCLINATION":80.988,"RA_OF_ASC_NODE":283.8166,"ARG_OF_PERICENTER":234.3414,"MEAN_ANOMALY":121.2825,"EPHEMERIS_TYPE":0,"CLASSIFICATION_TYPE":"U","NORAD_CAT_ID":39267,"ELEMENT_SET_NO":999,"REV_AT_EPOCH":64554,"BSTAR":0.00031071998,"MEAN_MOTION_DOT":0.00015936,"MEAN_MOTION_DDOT":0}]
